ONEWEB-0446             
1 51640U 22012U   26068.52414632 -.00000546  00000+0 -16012-2 0  9990
2 51640  87.8771  56.1289 0001951  83.4353 276.6997 13.10371557196273
ONEWEB-0448             
1 51641U 22012V   26068.45276988 -.00000740  00000+0 -21567-2 0  9990
2 51641  87.8772  56.1416 0001827  88.1888 271.9449 13.10373398196235
ONEWEB-0449             
1 51642U 22012W   26068.45775024 -.00000605  00000+0 -17686-2 0  9993
2 51642  87.8783  56.1187 0001506  74.8151 285.3143 13.10374794196244
ONEWEB-0451             
1 51643U 22012X   26068.88434319  .00000005  00000+0 -21201-4 0  9993
2 51643  87.9159  25.5522 0001752  77.7889 282.3439 13.17649514200589
ONEWEB-0452             
1 51644U 22012Y   26068.88266008  .00000081  00000+0  17512-3 0  9994
2 51644  87.9150  25.5990 0001543  80.2900 279.8405 13.17649937200595
ONEWEB-0456             
1 51646U 22012AA  26068.46772071 -.00000114  00000+0 -36333-3 0  9993
2 51646  87.8795  56.0951 0001855  90.9276 269.2063 13.10375872196287
ONEWEB-0457             
1 51647U 22012AB  26068.52082929 -.00000516  00000+0 -15133-2 0  9997
2 51647  87.8769  56.1168 0002038  74.3614 285.7738 13.10370748196296
ONEWEB-0458             
1 51648U 22012AC  26068.46606243 -.00000188  00000+0 -57598-3 0  9999
2 51648  87.8783  56.1085 0001676  85.0318 275.1001 13.10376214196243
ONEWEB-0461             
1 51649U 22012AD  26068.82864321  .00000061  00000+0  12440-3 0  9998
2 51649  87.9169  25.5774 0002008  76.0473 284.0881 13.17650199200807
ONEWEB-0463             
1 51650U 22012AE  26068.88603344  .00000073  00000+0  15459-3 0  9998
2 51650  87.9151  25.5994 0001972  78.6304 281.5049 13.17649990200595
ONEWEB-0464             
1 51651U 22012AF  26068.46275443 -.00000618  00000+0 -18061-2 0  9996
2 51651  87.8773  56.1374 0001715  91.6938 268.4386 13.10370310196266
ONEWEB-0468             
1 51652U 22012AG  26068.46937912  .00000008  00000+0 -12919-4 0  9993
2 51652  87.8776  56.1308 0001728  96.1699 263.9626 13.10375587196241
ONEWEB-0473             
1 51653U 22012AH  26068.53078422 -.00000661  00000+0 -19291-2 0  9998
2 51653  87.8773  56.1206 0001733  87.6769 272.4556 13.10372839196250
ONEWEB-0474             
1 51654U 22012AJ  26068.52248963 -.00000631  00000+0 -18426-2 0  9993
2 51654  87.8779  56.0971 0001729  95.3494 264.7830 13.10371959196241
ONEWEB-0475             
1 51655U 22012AK  26068.82190839  .00000132  00000+0  30734-3 0  9996
2 51655  87.9151  25.6038 0001369  98.2664 261.8623 13.17649682200606
ONEWEB-0490             
1 54113U 22138A   26068.73876478 -.00000080  00000+0 -23330-3 0  9995
2 54113  87.9235 324.7777 0001728  86.1977 273.9353 13.19725168163716
ONEWEB-0492             
1 54114U 22138B   26068.76403510 -.00000103  00000+0 -28875-3 0  9997
2 54114  87.9229 324.7808 0001881  83.4748 276.6599 13.19725549163727
