[{"OBJECT_NAME":"ONEWEB-0446","OBJECT_ID":"2022-012U","EPOCH":"2026-03-09T12:34:46.242048","MEAN_MOTION":13.10371557,"ECCENTRICITY":0.00019513,"INCLINATION":87.8771,"RA_OF_ASC_NODE":56.1289,"ARG_OF_PERICENTER":83.4353,"MEAN_ANOMALY":276.6997,"EPHEMERIS_TYPE":0,"CLASSIFICATION_TYPE":"U","NORAD_CAT_ID":51640,"ELEMENT_SET_NO":999,"REV_AT_EPOCH":19627,"BSTAR":-0.0016011797,"MEAN_MOTION_DOT":-5.46e-6,"MEAN_MOTION_DDOT":0},{"OBJECT_NAME":"ONEWEB-0448","OBJECT_ID":"2022-012V","EPOCH":"2026-03-09T10:51:59.317632","MEAN_MOTION":13.10373398,"ECCENTRICITY":0.00018279,"INCLINATION":87.8772,"RA_OF_ASC_NODE":56.1416,"ARG_OF_PERICENTER":88.1888,"MEAN_ANOMALY":271.9449,"EPHEMERIS_TYPE":0,"CLASSIFICATION_TYPE":"U","NORAD_CAT_ID":51641,"ELEMENT_SET_NO":999,"REV_AT_EPOCH":19623,"BSTAR":-0.0021567389,"MEAN_MOTION_DOT":-7.4e-6,"MEAN_MOTION_DDOT":0},{"OBJECT_NAME":"ONEWEB-0449","OBJECT_ID":"2022-012W","EPOCH":"2026-03-09T10:59:09.620736","MEAN_MOTION":13.10374794,"ECCENTRICITY":0.00015068,"INCLINATION":87.8783,"RA_OF_ASC_NODE":56.1187,"ARG_OF_PERICENTER":74.8151,"MEAN_ANOMALY":285.3143,"EPHEMERIS_TYPE":0,"CLASSIFICATION_TYPE":"U","NORAD_CAT_ID":51642,"ELEMENT_SET_NO":999,"REV_AT_EPOCH":19624,"BSTAR":-0.0017686229,"MEAN_MOTION_DOT":-6.05e-6,"MEAN_MOTION_DDOT":0},{"OBJECT_NAME":"ONEWEB-0451","OBJECT_ID":"2022-012X","EPOCH":"2026-03-09T21:13:27.251616","MEAN_MOTION":13.17649514,"ECCENTRICITY":0.0001752,"INCLINATION":87.9159,"RA_OF_ASC_NODE":25.5522,"ARG_OF_PERICENTER":77.7889,"MEAN_ANOMALY":282.3439,"EPHEMERIS_TYPE":0,"CLASSIFICATION_TYPE":"U","NORAD_CAT_ID":51643,"ELEMENT_SET_NO":999,"REV_AT_EPOCH":20058,"BSTAR":-2.1201e-5,"MEAN_MOTION_DOT":5.0e-8,"MEAN_MOTION_DDOT":0},{"OBJECT_NAME":"ONEWEB-0452","OBJECT_ID":"2022-012Y","EPOCH":"2026-03-09T21:11:01.830912","MEAN_MOTION":13.17649937,"ECCENTRICITY":0.0001543,"INCLINATION":87.915,"RA_OF_ASC_NODE":25.599,"ARG_OF_PERICENTER":80.29,"MEAN_ANOMALY":279.8405,"EPHEMERIS_TYPE":0,"CLASSIFICATION_TYPE":"U","NORAD_CAT_ID":51644,"ELEMENT_SET_NO":999,"REV_AT_EPOCH":20059,"BSTAR":0.00017512,"MEAN_MOTION_DOT":8.1e-7,"MEAN_MOTION_DDOT":0},{"OBJECT_NAME":"ONEWEB-0456","OBJECT_ID":"2022-012AA","EPOCH":"2026-03-09T11:13:31.069344","MEAN_MOTION":13.10375872,"ECCENTRICITY":0.00018551,"INCLINATION":87.8795,"RA_OF_ASC_NODE":56.0951,"ARG_OF_PERICENTER":90.9276,"MEAN_ANOMALY":269.2063,"EPHEMERIS_TYPE":0,"CLASSIFICATION_TYPE":"U","NORAD_CAT_ID":51646,"ELEMENT_SET_NO":999,"REV_AT_EPOCH":19628,"BSTAR":-0.00036333163,"MEAN_MOTION_DOT":-1.14e-6,"MEAN_MOTION_DDOT":0},{"OBJECT_NAME":"ONEWEB-0457","OBJECT_ID":"2022-012AB","EPOCH":"2026-03-09T12:29:59.650656","MEAN_MOTION":13.10370748,"ECCENTRICITY":0.00020382,"INCLINATION":87.8769,"RA_OF_ASC_NODE":56.1168,"ARG_OF_PERICENTER":74.3614,"MEAN_ANOMALY":285.7738,"EPHEMERIS_TYPE":0,"CLASSIFICATION_TYPE":"U","NORAD_CAT_ID":51647,"ELEMENT_SET_NO":999,"REV_AT_EPOCH":19629,"BSTAR":-0.0015133263,"MEAN_MOTION_DOT":-5.16e-6,"MEAN_MOTION_DDOT":0},{"OBJECT_NAME":"ONEWEB-0458","OBJECT_ID":"2022-012AC","EPOCH":"2026-03-09T11:11:07.793952","MEAN_MOTION":13.10376214,"ECCENTRICITY":0.00016765,"INCLINATION":87.8783,"RA_OF_ASC_NODE":56.1085,"ARG_OF_PERICENTER":85.0318,"MEAN_ANOMALY":275.1001,"EPHEMERIS_TYPE":0,"CLASSIFICATION_TYPE":"U","NORAD_CAT_ID":51648,"ELEMENT_SET_NO":999,"REV_AT_EPOCH":19624,"BSTAR":-0.00057598331,"MEAN_MOTION_DOT":-1.88e-6,"MEAN_MOTION_DDOT":0},{"OBJECT_NAME":"ONEWEB-0461","OBJECT_ID":"2022-012AD","EPOCH":"2026-03-09T19:53:14.773344","MEAN_MOTION":13.17650199,"ECCENTRICITY":0.0002008,"INCLINATION":87.9169,"RA_OF_ASC_NODE":25.5774,"ARG_OF_PERICENTER":76.0473,"MEAN_ANOMALY":284.0881,"EPHEMERIS_TYPE":0,"CLASSIFICATION_TYPE":"U","NORAD_CAT_ID":51649,"ELEMENT_SET_NO":999,"REV_AT_EPOCH":20080,"BSTAR":0.0001244,"MEAN_MOTION_DOT":6.1e-7,"MEAN_MOTION_DDOT":0},{"OBJECT_NAME":"ONEWEB-0463","OBJECT_ID":"2022-012AE","EPOCH":"2026-03-09T21:15:53.289216","MEAN_MOTION":13.1764999,"ECCENTRICITY":0.0001972,"INCLINATION":87.9151,"RA_OF_ASC_NODE":25.5994,"ARG_OF_PERICENTER":78.6304,"MEAN_ANOMALY":281.5049,"EPHEMERIS_TYPE":0,"CLASSIFICATION_TYPE":"U","NORAD_CAT_ID":51650,"ELEMENT_SET_NO":999,"REV_AT_EPOCH":20059,"BSTAR":0.00015459,"MEAN_MOTION_DOT":7.3e-7,"MEAN_MOTION_DDOT":0},{"OBJECT_NAME":"ONEWEB-0464","OBJECT_ID":"2022-012AF","EPOCH":"2026-03-09T11:06:21.982752","MEAN_MOTION":13.1037031,"ECCENTRICITY":0.00017152,"INCLINATION":87.8773,"RA_OF_ASC_NODE":56.1374,"ARG_OF_PERICENTER":91.6938,"MEAN_ANOMALY":268.4386,"EPHEMERIS_TYPE":0,"CLASSIFICATION_TYPE":"U","NORAD_CAT_ID":51651,"ELEMENT_SET_NO":999,"REV_AT_EPOCH":19626,"BSTAR":-0.0018061079,"MEAN_MOTION_DOT":-6.18e-6,"MEAN_MOTION_DDOT":0},{"OBJECT_NAME":"ONEWEB-0468","OBJECT_ID":"2022-012AG","EPOCH":"2026-03-09T11:15:54.355968","MEAN_MOTION":13.10375587,"ECCENTRICITY":0.00017282,"INCLINATION":87.8776,"RA_OF_ASC_NODE":56.1308,"ARG_OF_PERICENTER":96.1699,"MEAN_ANOMALY":263.9626,"EPHEMERIS_TYPE":0,"CLASSIFICATION_TYPE":"U","NORAD_CAT_ID":51652,"ELEMENT_SET_NO":999,"REV_AT_EPOCH":19624,"BSTAR":-1.2919363e-5,"MEAN_MOTION_DOT":8.0e-8,"MEAN_MOTION_DDOT":0},{"OBJECT_NAME":"ONEWEB-0473","OBJECT_ID":"2022-012AH","EPOCH":"2026-03-09T12:44:19.756608","MEAN_MOTION":13.10372839,"ECCENTRICITY":0.00017336,"INCLINATION":87.8773,"RA_OF_ASC_NODE":56.1206,"ARG_OF_PERICENTER":87.6769,"MEAN_ANOMALY":272.4556,"EPHEMERIS_TYPE":0,"CLASSIFICATION_TYPE":"U","NORAD_CAT_ID":51653,"ELEMENT_SET_NO":999,"REV_AT_EPOCH":19625,"BSTAR":-0.0019290785,"MEAN_MOTION_DOT":-6.61e-6,"MEAN_MOTION_DDOT":0},{"OBJECT_NAME":"ONEWEB-0474","OBJECT_ID":"2022-012AJ","EPOCH":"2026-03-09T12:32:23.104032","MEAN_MOTION":13.10371959,"ECCENTRICITY":0.00017292,"INCLINATION":87.8779,"RA_OF_ASC_NODE":56.0971,"ARG_OF_PERICENTER":95.3494,"MEAN_ANOMALY":264.783,"EPHEMERIS_TYPE":0,"CLASSIFICATION_TYPE":"U","NORAD_CAT_ID":51654,"ELEMENT_SET_NO":999,"REV_AT_EPOCH":19624,"BSTAR":-0.0018426433,"MEAN_MOTION_DOT":-6.31e-6,"MEAN_MOTION_DDOT":0},{"OBJECT_NAME":"ONEWEB-0475","OBJECT_ID":"2022-012AK","EPOCH":"2026-03-09T19:43:32.884896","MEAN_MOTION":13.17649682,"ECCENTRICITY":0.0001369,"INCLINATION":87.9151,"RA_OF_ASC_NODE":25.6038,"ARG_OF_PERICENTER":98.2664,"MEAN_ANOMALY":261.8623,"EPHEMERIS_TYPE":0,"CLASSIFICATION_TYPE":"U","NORAD_CAT_ID":51655,"ELEMENT_SET_NO":999,"REV_AT_EPOCH":20060,"BSTAR":0.00030734,"MEAN_MOTION_DOT":1.32e-6,"MEAN_MOTION_DDOT":0},{"OBJECT_NAME":"ONEWEB-0490","OBJECT_ID":"2022-138A","EPOCH":"2026-03-09T17:43:49.276992","MEAN_MOTION":13.19725168,"ECCENTRICITY":0.0001728,"INCLINATION":87.9235,"RA_OF_ASC_NODE":324.7777,"ARG_OF_PERICENTER":86.1977,"MEAN_ANOMALY":273.9353,"EPHEMERIS_TYPE":0,"CLASSIFICATION_TYPE":"U","NORAD_CAT_ID":54113,"ELEMENT_SET_NO":999,"REV_AT_EPOCH":16371,"BSTAR":-0.0002333,"MEAN_MOTION_DOT":-8.0e-7,"MEAN_MOTION_DDOT":0},{"OBJECT_NAME":"ONEWEB-0492","OBJECT_ID":"2022-138B","EPOCH":"2026-03-09T18:20:12.632640","MEAN_MOTION":13.19725549,"ECCENTRICITY":0.0001881,"INCLINATION":87.9229,"RA_OF_ASC_NODE":324.7808,"ARG_OF_PERICENTER":83.4748,"MEAN_ANOMALY":276.6599,"EPHEMERIS_TYPE":0,"CLASSIFICATION_TYPE":"U","NORAD_CAT_ID":54114,"ELEMENT_SET_NO":999,"REV_AT_EPOCH":16372,"BSTAR":-0.00028875,"MEAN_MOTION_DOT":-1.03e-6,"MEAN_MOTION_DDOT":0}]
